CCSDS_OMM_VERS = 2.0
CREATION_DATE  = 
ORIGINATOR     = 

OBJECT_NAME    = SL-16 R/B
OBJECT_ID      = 1993-016B
CENTER_NAME    = EARTH
REF_FRAME      = TEME
TIME_SYSTEM    = UTC
MEAN_ELEMENT_THEORY = SGP/SGP4

EPOCH          = 2026-02-12T01:16:52.342176
MEAN_MOTION    = 14.15302762
ECCENTRICITY   = .00104752
INCLINATION    = 71.0058
RA_OF_ASC_NODE = 269.0285
ARG_OF_PERICENTER = 348.8747
MEAN_ANOMALY   = 11.2142

EPHEMERIS_TYPE = 0
CLASSIFICATION_TYPE = U
NORAD_CAT_ID   = 22566
ELEMENT_SET_NO = 999
REV_AT_EPOCH   = 69854
BSTAR          = -.91747901E-4
MEAN_MOTION_DOT = -.226E-5
MEAN_MOTION_DDOT = 0

CCSDS_OMM_VERS = 2.0
CREATION_DATE  = 
ORIGINATOR     = 

OBJECT_NAME    = COSMOS 2242
OBJECT_ID      = 1993-024A
CENTER_NAME    = EARTH
REF_FRAME      = TEME
TIME_SYSTEM    = UTC
MEAN_ELEMENT_THEORY = SGP/SGP4

EPOCH          = 2026-02-12T15:05:10.863744
MEAN_MOTION    = 14.96445185
ECCENTRICITY   = .00173921
INCLINATION    = 82.5190
RA_OF_ASC_NODE = 290.6874
ARG_OF_PERICENTER = 34.0755
MEAN_ANOMALY   = 326.1580

EPHEMERIS_TYPE = 0
CLASSIFICATION_TYPE = U
NORAD_CAT_ID   = 22626
ELEMENT_SET_NO = 999
REV_AT_EPOCH   = 77664
BSTAR          = .20118262E-3
MEAN_MOTION_DOT = .2314E-4
MEAN_MOTION_DDOT = 0

CCSDS_OMM_VERS = 2.0
CREATION_DATE  = 
ORIGINATOR     = 

OBJECT_NAME    = SL-16 R/B
OBJECT_ID      = 1993-059B
CENTER_NAME    = EARTH
REF_FRAME      = TEME
TIME_SYSTEM    = UTC
MEAN_ELEMENT_THEORY = SGP/SGP4

EPOCH          = 2026-02-12T11:47:12.399936
MEAN_MOTION    = 14.17228262
ECCENTRICITY   = .00194751
INCLINATION    = 70.9890
RA_OF_ASC_NODE = 64.2664
ARG_OF_PERICENTER = 251.3396
MEAN_ANOMALY   = 108.5614

EPHEMERIS_TYPE = 0
CLASSIFICATION_TYPE = U
NORAD_CAT_ID   = 22803
ELEMENT_SET_NO = 999
REV_AT_EPOCH   = 67596
BSTAR          = -.10692464E-4
MEAN_MOTION_DOT = -.7E-6
MEAN_MOTION_DDOT = 0

CCSDS_OMM_VERS = 2.0
CREATION_DATE  = 
ORIGINATOR     = 

OBJECT_NAME    = ARIANE 40 R/B
OBJECT_ID      = 1993-061H
CENTER_NAME    = EARTH
REF_FRAME      = TEME
TIME_SYSTEM    = UTC
MEAN_ELEMENT_THEORY = SGP/SGP4

EPOCH          = 2026-02-12T05:02:52.531008
MEAN_MOTION    = 14.32847386
ECCENTRICITY   = .0010574
INCLINATION    = 98.4972
RA_OF_ASC_NODE = 112.5938
ARG_OF_PERICENTER = 6.1102
MEAN_ANOMALY   = 354.0209

EPHEMERIS_TYPE = 0
CLASSIFICATION_TYPE = U
NORAD_CAT_ID   = 22830
ELEMENT_SET_NO = 999
REV_AT_EPOCH   = 69045
BSTAR          = .95067E-4
MEAN_MOTION_DOT = .216E-5
MEAN_MOTION_DDOT = 0

CCSDS_OMM_VERS = 2.0
CREATION_DATE  = 
ORIGINATOR     = 

OBJECT_NAME    = COSMOS 2278
OBJECT_ID      = 1994-023A
CENTER_NAME    = EARTH
REF_FRAME      = TEME
TIME_SYSTEM    = UTC
MEAN_ELEMENT_THEORY = SGP/SGP4

EPOCH          = 2026-02-12T13:28:25.576032
MEAN_MOTION    = 14.14363434
ECCENTRICITY   = .00067773
INCLINATION    = 71.0501
RA_OF_ASC_NODE = 227.6692
ARG_OF_PERICENTER = 61.6996
MEAN_ANOMALY   = 298.4810

EPHEMERIS_TYPE = 0
CLASSIFICATION_TYPE = U
NORAD_CAT_ID   = 23087
ELEMENT_SET_NO = 999
REV_AT_EPOCH   = 64125
BSTAR          = .21392436E-4
MEAN_MOTION_DOT = -.6E-7
MEAN_MOTION_DDOT = 0

CCSDS_OMM_VERS = 2.0
CREATION_DATE  = 
ORIGINATOR     = 

OBJECT_NAME    = SL-16 R/B
OBJECT_ID      = 1994-023B
CENTER_NAME    = EARTH
REF_FRAME      = TEME
TIME_SYSTEM    = UTC
MEAN_ELEMENT_THEORY = SGP/SGP4

EPOCH          = 2026-02-12T14:51:46.107360
MEAN_MOTION    = 14.15004798
ECCENTRICITY   = .00045717
INCLINATION    = 70.9995
RA_OF_ASC_NODE = 123.5406
ARG_OF_PERICENTER = 309.3099
MEAN_ANOMALY   = 50.7618

EPHEMERIS_TYPE = 0
CLASSIFICATION_TYPE = U
NORAD_CAT_ID   = 23088
ELEMENT_SET_NO = 999
REV_AT_EPOCH   = 64254
BSTAR          = .13445361E-3
MEAN_MOTION_DOT = .213E-5
MEAN_MOTION_DDOT = 0

CCSDS_OMM_VERS = 2.0
CREATION_DATE  = 
ORIGINATOR     = 

OBJECT_NAME    = SL-16 R/B
OBJECT_ID      = 1994-074B
CENTER_NAME    = EARTH
REF_FRAME      = TEME
TIME_SYSTEM    = UTC
MEAN_ELEMENT_THEORY = SGP/SGP4

EPOCH          = 2026-02-12T14:00:37.038528
MEAN_MOTION    = 14.79377533
ECCENTRICITY   = .00054217
INCLINATION    = 97.7143
RA_OF_ASC_NODE = 75.4145
ARG_OF_PERICENTER = 312.1413
MEAN_ANOMALY   = 209.2633

EPHEMERIS_TYPE = 0
CLASSIFICATION_TYPE = U
NORAD_CAT_ID   = 23343
ELEMENT_SET_NO = 999
REV_AT_EPOCH   = 68353
BSTAR          = .75595116E-4
MEAN_MOTION_DOT = .514E-5
MEAN_MOTION_DDOT = 0

CCSDS_OMM_VERS = 2.0
CREATION_DATE  = 
ORIGINATOR     = 

OBJECT_NAME    = SL-16 R/B
OBJECT_ID      = 1994-077B
CENTER_NAME    = EARTH
REF_FRAME      = TEME
TIME_SYSTEM    = UTC
MEAN_ELEMENT_THEORY = SGP/SGP4

EPOCH          = 2026-02-12T09:34:06.516192
MEAN_MOTION    = 14.15559222
ECCENTRICITY   = .00041617
INCLINATION    = 70.9820
RA_OF_ASC_NODE = 45.6954
ARG_OF_PERICENTER = 232.6970
MEAN_ANOMALY   = 127.3773

EPHEMERIS_TYPE = 0
CLASSIFICATION_TYPE = U
NORAD_CAT_ID   = 23405
ELEMENT_SET_NO = 999
REV_AT_EPOCH   = 61265
BSTAR          = .17894723E-3
MEAN_MOTION_DOT = .302E-5
MEAN_MOTION_DDOT = 0

CCSDS_OMM_VERS = 2.0
CREATION_DATE  = 
ORIGINATOR     = 

OBJECT_NAME    = ARIANE 40+ R/B
OBJECT_ID      = 1995-021B
CENTER_NAME    = EARTH
REF_FRAME      = TEME
TIME_SYSTEM    = UTC
MEAN_ELEMENT_THEORY = SGP/SGP4

EPOCH          = 2026-02-12T03:59:33.853920
MEAN_MOTION    = 14.39753476
ECCENTRICITY   = .00062662
INCLINATION    = 98.4551
RA_OF_ASC_NODE = 114.9880
ARG_OF_PERICENTER = 209.7225
MEAN_ANOMALY   = 178.2783

EPHEMERIS_TYPE = 0
CLASSIFICATION_TYPE = U
NORAD_CAT_ID   = 23561
ELEMENT_SET_NO = 999
REV_AT_EPOCH   = 61557
BSTAR          = .11561194E-3
MEAN_MOTION_DOT = .319E-5
MEAN_MOTION_DDOT = 0

CCSDS_OMM_VERS = 2.0
CREATION_DATE  = 
ORIGINATOR     = 

OBJECT_NAME    = SL-16 R/B
OBJECT_ID      = 1995-058B
CENTER_NAME    = EARTH
REF_FRAME      = TEME
TIME_SYSTEM    = UTC
MEAN_ELEMENT_THEORY = SGP/SGP4

EPOCH          = 2026-02-12T14:47:39.351552
MEAN_MOTION    = 14.15494973
ECCENTRICITY   = .00119484
INCLINATION    = 71.0193
RA_OF_ASC_NODE = 232.8947
ARG_OF_PERICENTER = 167.8049
MEAN_ANOMALY   = 192.3365

EPHEMERIS_TYPE = 0
CLASSIFICATION_TYPE = U
NORAD_CAT_ID   = 23705
ELEMENT_SET_NO = 999
REV_AT_EPOCH   = 56430
BSTAR          = .12165307E-3
MEAN_MOTION_DOT = .19E-5
MEAN_MOTION_DDOT = 0

CCSDS_OMM_VERS = 2.0
CREATION_DATE  = 
ORIGINATOR     = 

OBJECT_NAME    = SL-16 R/B
OBJECT_ID      = 1996-051B
CENTER_NAME    = EARTH
REF_FRAME      = TEME
TIME_SYSTEM    = UTC
MEAN_ELEMENT_THEORY = SGP/SGP4

EPOCH          = 2026-02-12T14:23:14.161344
MEAN_MOTION    = 14.12408400
ECCENTRICITY   = .00172557
INCLINATION    = 70.7566
RA_OF_ASC_NODE = 228.3450
ARG_OF_PERICENTER = 183.4372
MEAN_ANOMALY   = 176.6632

EPHEMERIS_TYPE = 0
CLASSIFICATION_TYPE = U
NORAD_CAT_ID   = 24298
ELEMENT_SET_NO = 999
REV_AT_EPOCH   = 51810
BSTAR          = .79197658E-4
MEAN_MOTION_DOT = .97E-6
MEAN_MOTION_DDOT = 0

CCSDS_OMM_VERS = 2.0
CREATION_DATE  = 
ORIGINATOR     = 

OBJECT_NAME    = ORBVIEW 2 (SEASTAR)
OBJECT_ID      = 1997-037A
CENTER_NAME    = EARTH
REF_FRAME      = TEME
TIME_SYSTEM    = UTC
MEAN_ELEMENT_THEORY = SGP/SGP4

EPOCH          = 2026-02-12T11:08:41.458272
MEAN_MOTION    = 14.35475442
ECCENTRICITY   = .00030765
INCLINATION    = 98.8522
RA_OF_ASC_NODE = 207.1141
ARG_OF_PERICENTER = 123.0365
MEAN_ANOMALY   = 237.1115

EPHEMERIS_TYPE = 0
CLASSIFICATION_TYPE = U
NORAD_CAT_ID   = 24883
ELEMENT_SET_NO = 999
REV_AT_EPOCH   = 50485
BSTAR          = .14741001E-3
MEAN_MOTION_DOT = .377E-5
MEAN_MOTION_DDOT = 0

