SL-16 R/B               
1 22566U 93016B   26043.05338359 -.00000226  00000+0 -91748-4 0  9995
2 22566  71.0058 269.0285 0010475 348.8747  11.2142 14.15302762698548
COSMOS 2242             
1 22626U 93024A   26043.62859796  .00002314  00000+0  20118-3 0  9997
2 22626  82.5190 290.6874 0017392  34.0755 326.1580 14.96445185776649
SL-16 R/B               
1 22803U 93059B   26043.49111574 -.00000070  00000+0 -10692-4 0  9998
2 22803  70.9890  64.2664 0019475 251.3396 108.5614 14.17228262675966
ARIANE 40 R/B           
1 22830U 93061H   26043.21033022  .00000216  00000+0  95067-4 0  9991
2 22830  98.4972 112.5938 0010574   6.1102 354.0209 14.32847386690455
COSMOS 2278             
1 23087U 94023A   26043.56140713 -.00000006  00000+0  21392-4 0  9997
2 23087  71.0501 227.6692 0006777  61.6996 298.4810 14.14363434641257
SL-16 R/B               
1 23088U 94023B   26043.61928365  .00000213  00000+0  13445-3 0  9999
2 23088  70.9995 123.5406 0004571 309.3099  50.7618 14.15004798642540
SL-16 R/B               
1 23343U 94074B   26043.58376202  .00000514  00000+0  75595-4 0  9991
2 23343  97.7143  75.4145 0005421 312.1413 209.2633 14.79377533683530
SL-16 R/B               
1 23405U 94077B   26043.39868653  .00000302  00000+0  17895-3 0  9991
2 23405  70.9820  45.6954 0004161 232.6970 127.3773 14.15559222612652
ARIANE 40+ R/B          
1 23561U 95021B   26043.16636405  .00000319  00000+0  11561-3 0  9999
2 23561  98.4551 114.9880 0006266 209.7225 178.2783 14.39753476615578
SL-16 R/B               
1 23705U 95058B   26043.61642768  .00000190  00000+0  12165-3 0  9996
2 23705  71.0193 232.8947 0011948 167.8049 192.3365 14.15494973564307
SL-16 R/B               
1 24298U 96051B   26043.59946946  .00000097  00000+0  79198-4 0  9996
2 24298  70.7566 228.3450 0017255 183.4372 176.6632 14.12408400518100
ORBVIEW 2 (SEASTAR)     
1 24883U 97037A   26043.46436873  .00000377  00000+0  14741-3 0  9993
2 24883  98.8522 207.1141 0003076 123.0365 237.1115 14.35475442504854
